#dP2024  7  8  0  0  0.00000000      97 __u+U IGS20 FIT  IAC
## 2322  86400.00000000   900.00000000 60499 0.0000000000000
+  118   C06C07C08C09C10C11C12C13C14C16C19C20C21C22C23C24C25
+        C26C27C28C29C30C32C33C34C35C36C37C38C39C40C41C42C43
+        C44C45E02E03E04E05E07E08E09E10E11E12E13E14E15E18E19
+        E21E24E25E26E27E30E31E33E34E36G02G03G04G05G06G07G08
+        G09G10G11G12G13G14G15G16G17G18G19G20G21G22G23G24G25
+        G26G27G28G29G30G31G32J02J03J04R01R02R03R04R05R07R08
+        R09R11R12R13R14R15R16R17R18R19R20R21R22R24R25R26  0
++         7  7  7  7  7  6  7  7  7  7  5  6  6  5  5  6  5
++         6  6  6  6  6  6  5  6  6  6  6  6  6  6  6  6  5
++         6  6  4  4  4  4  4  4  4  4  4  4  3  4  4  5  4
++         4  4  4  4  4  4  4  4  4  4  3  3  3  3  3  3  3
++         3  3  3  3  4  3  4  3  3  3  3  3  3  3  3  3  3
++         3  3  3  4  3  3  3 11 11 11  7  6  6  6  6  7  7
++         6  6  6  7  6  6  6  6  6  7  7  6  6  6  8  8  0
%c M  cc GPS ccc cccc cccc cccc cccc ccccc ccccc ccccc ccccc
%c cc cc ccc ccc cccc cccc cccc cccc ccccc ccccc ccccc ccccc
%f  1.2500000  1.025000000  0.00000000000  0.000000000000000
%f  0.0000000  0.000000000  0.00000000000  0.000000000000000
%i    0    0    0    0      0      0      0      0         0
%i    0    0    0    0      0      0      0      0         0
/* INFORMATION & ANALYSIS CENTER (IAC)            FINAL DATA
/* S/V CLOCKS ARE ALIGNED TO GNSS TIME                      
/* G:C1WC2W R:C1PC2P E:C1XC5X C:C2IC6I J:C1CC2S             
/* PCV:IGS20_2317 OL/AL:FES2004  NONE     YN ORB:CoN CLK:CoN
*  2024 07 08 21  0  0.00000000
PC06 -12683.460694  40042.192703   -459.503087    573.953140
PC07  -2748.047775  30409.242690  29263.701784   -567.504930
PC08 -16129.142563  22481.354996 -31920.877838   -293.959335
PC09  -6480.374810  40110.846593  10450.590262     -3.686525
PC10   4297.975971  32852.426413  26724.229565    -67.040828
PC11  12810.348085  17473.984641 -17532.889999    652.727853
PC12   2710.518086  27764.218762   -888.446655   -262.437315
PC13  -9745.474007  23792.342599 -33341.244644    438.708614
PC14  23498.051437  14270.534795  -4986.509237    911.605967
PC16 -12709.425317  39999.714218   -725.205378   -643.359754
PC19 -26155.192281  -8678.066914  -4268.260412   -917.369662
PC20 -18317.488301 -17210.968655  12085.481180   -663.659299
PC21  -1466.593869  16129.117920 -22722.258664   -959.731549
PC22 -19452.101099   5404.437546 -19260.522242     54.345251
PC23  23781.974792 -14223.425153   3297.138700   -796.218091
PC24   6149.740280  15522.185899  22356.806121    885.592664
PC25  21157.621371    410.301570  18175.031241    446.356118
PC26 -11964.813463  21295.577823  13509.877355   -317.019885
PC27   2997.636232 -26634.210563  -7799.221471    338.043290
PC28  12452.606020 -15340.631488 -19702.422402    260.308828
PC29 -16209.698583  -7890.998869  21291.761666    305.587714
PC30  -9363.968417 -24889.867499   8472.867981   -126.119162
PC32   1530.794505 -16093.079439  22752.273138   -667.903472
PC33  26240.902926   8572.738433   4176.323837   -960.739027
PC34  10305.514772  23934.097525  -9981.783120    472.878874
PC35 -12132.041540  15375.727320  19850.225614    318.082138
PC36 -21262.459532   -685.136066 -18037.996125    131.178994
PC37  12439.642412 -21008.163115 -13477.381795   -926.733150
PC38 -23755.357121  24075.588862 -25224.609951    166.041964
PC39 -15001.370283  38244.359049  -8807.271255     -9.074493
PC40  -6189.312777  25642.383403  32978.284728    -79.194192
PC41  20149.377335  -4851.792957  18746.846298   -947.828803
PC42  16990.935131  17577.737395 -13455.262364   -451.393093
PC43  16217.471923   8939.387730 -20885.734043     78.141314
PC44  -2075.873275  26675.148164   7869.149377    527.183240
PC45 -23911.995336  13945.873414  -3621.560885   -102.471526
PE02  18017.518571  13134.541750  19464.245654    141.761098
PE03  17212.468422  23888.534861   3137.920553   -125.633475
PE04 -20784.230789  -7822.946562 -19558.232846   -440.325073
PE05   3591.190458  25447.364635 -14690.751902   4764.184959
PE07  12480.281178 -11798.186931  24113.049343   -130.057457
PE08  20831.632774   8831.700676  19095.400434   -299.664942
PE09 -12396.543267  11668.522202 -24213.766193   -508.444073
PE10 -19935.094247  12787.466555  17749.252589   -638.928297
PE11 -18345.344387  21412.186401   8978.046748   2424.060193
PE12 -18541.101863   3093.119804  22852.209486  -1115.499082
PE13  18492.203224 -21049.667280  -9554.974895    -22.842030
PE14  20791.912873  23936.093635  -6494.512229    106.653764
PE15  18301.677924  -2516.020236 -23129.095191   -113.603950
PE18 -14690.980997 -17855.342648   4447.282324    305.980206
PE19 -16048.857761 -24836.925974  -1238.808466    255.043966
PE21   3124.438224 -16793.047802 -24170.553870   -604.338146
PE24 -23440.590487  10603.148072  14641.314987   -862.931269
PE25  -3614.800033  16773.699131  24127.916898      6.661833
PE26   7410.438733 -26920.235847   9818.058458    506.653152
PE27  23232.116553 -10763.156007 -14843.920638   -395.340590
PE30  29380.813655   1661.269375   3157.540728   -486.556937
PE31 -29396.375619  -1520.545878  -3094.337115    -28.764658
PE33  -7020.465951 -17601.543896  22732.943380     13.570065
PE34   7412.964655  17203.872488 -22930.811701   -121.513330
PE36  -7880.230610  26954.121252  -9353.375720   -252.228837
PG02 -14505.008831  20349.211363   9001.227569   -402.800681
PG03 -16043.644256  12494.527969 -17183.767986    449.546568
PG04  -6815.705194  15611.194037 -20327.310277    399.753553
PG05  25867.597799  -5246.940106   3154.892713   -179.074903
PG06   9528.596047  12348.685906 -21418.117817    173.121093
PG07  -3525.753389  24170.118242  10357.444211    -74.080828
PG08 -14861.741855   5307.503600  21298.662986    265.846214
PG09   4357.015886  22459.283935 -13531.599129    265.489097
PG10 -16412.298085 -10942.912057  18150.567698    -61.278087
PG11  16955.083148  -1733.421603 -20332.067604   -701.210968
PG12  18870.505045 -10825.640675 -15482.186611   -520.671375
PG13  17121.199698   4541.605922  19652.883181    663.265354
PG14  12442.493051  13418.158289  19364.059974    444.207188
PG15  14047.303392  -7386.941074  20811.990803    178.915063
PG16 -26798.748403   -416.006509     21.932295   -242.161656
PG17  12995.777207  23057.491749    802.376360    681.279244
PG18   4044.042183 -23884.425753  10656.964064   -634.381615
PG19  16893.014605  18921.450206  -8722.419651    507.661658
PG20  25449.582840  -1215.633784  -7154.670604    372.973284
PG21 -16113.795696  15719.090195  13647.833351    110.218970
PG22  19159.776062  10881.180834  15034.275948    -37.215405
PG23  -3547.778086 -14489.043852  22009.093444    269.175176
PG24  14763.133366 -19408.880835   9585.054177   -482.222012
PG25   7947.319077 -15371.011372 -20420.405077    498.308151
PG26 -22963.048587  -5893.780208 -12491.129052    123.439740
PG27 -19091.152163  -6652.677079  17149.784513    -30.623822
PG28  -8926.587556 -14696.165995 -20252.737544   -323.025457
PG29    249.222816 -21330.767658 -15791.259519   -590.515389
PG30   5184.921323  19154.535738  17678.256146   -361.127022
PG31 -15597.488390  -3069.097647 -21539.172167   -226.907452
PG32 -15729.072678 -21501.530882  -1036.240261   -613.129203
PJ02 -30560.597394  22255.876195  23773.036075     -0.500866
PJ03 -30159.841210  27470.753933  16036.376738     -1.072980
PJ04 -24242.744631  21360.606516 -21991.705808     50.528245
PR01   9716.624578  -6501.149300  22672.259556     90.786111
PR02  -6255.634699 -15444.356848  19381.421120    -23.626628
PR03 -19183.249651 -16108.441514   5016.493579    103.467358
PR04 -21088.143608  -8270.840554 -11712.708701    244.501185
PR05 -11902.112954   4096.143583 -22179.746107    134.263953
PR07  19483.097455  15875.678874  -4176.652612     86.247068
PR08  21115.819452   7788.419031  12033.777145     -5.723798
PR09  -6468.928115  14492.900490  19964.402996    196.602619
PR11  21553.031049  -3558.039988  13203.026757     18.813491
PR12  20961.899986 -13252.476890  -5919.036883     42.221325
PR13   9442.327563 -14681.045786 -18606.633659    -49.111888
PR14 -10557.431921  -6827.675004 -22171.708162     26.673553
PR15 -22209.692126   4418.244370 -11706.029114     78.071970
PR16 -20980.910677  13265.007362   5802.753044     27.183237
PR17  -6264.738733 -17919.815920  17015.512835    102.875756
PR18 -10405.118584  -1608.730731  23244.172120    150.976919
PR19 -10264.765236  13899.858697  18763.338407   -283.171413
PR20  -3325.212282  25272.885241    -39.384711   -115.813922
PR21   5877.761515  18342.480084 -16746.828006   -115.893440
PR22  10918.238503    549.373409 -23024.144001     91.548747
PR24   1914.436069 -25417.338487    612.311352    -62.990263
PR25   5900.174498  17992.384514 -17103.480795    -95.412716
PR26  21493.842278   8612.043434  10748.514317      3.303614
EOF
